[{"OBJECT_NAME":"CLARITY-1","OBJECT_ID":"2025-052T","EPOCH":"2026-03-09T21:50:38.075424","MEAN_MOTION":15.81863851,"ECCENTRICITY":0.00041333,"INCLINATION":97.4224,"RA_OF_ASC_NODE":341.0548,"ARG_OF_PERICENTER":106.2264,"MEAN_ANOMALY":253.946,"EPHEMERIS_TYPE":0,"CLASSIFICATION_TYPE":"U","NORAD_CAT_ID":63227,"ELEMENT_SET_NO":999,"REV_AT_EPOCH":5587,"BSTAR":0.0005281172,"MEAN_MOTION_DOT":0.00107362,"MEAN_MOTION_DDOT":0},{"OBJECT_NAME":"STARLINK-36860","OBJECT_ID":"2026-037D","EPOCH":"2026-03-09T22:00:01.999584","MEAN_MOTION":15.81979306,"ECCENTRICITY":0.00015098,"INCLINATION":42.9986,"RA_OF_ASC_NODE":197.156,"ARG_OF_PERICENTER":264.3602,"MEAN_ANOMALY":234.4545,"EPHEMERIS_TYPE":0,"CLASSIFICATION_TYPE":"U","NORAD_CAT_ID":67935,"ELEMENT_SET_NO":999,"REV_AT_EPOCH":323,"BSTAR":0.00031534287,"MEAN_MOTION_DOT":0.00066262,"MEAN_MOTION_DDOT":0}]
